ONEWEB-0365             
1 49291U 21090N   26182.28863472  .00000103  00000+0  22412-3 0  9993
2 49291  87.9190 302.1586 0001932 102.8494 257.2855 13.19725522228282
ONEWEB-0366             
1 49292U 21090P   26182.28932594  .00000226  00000+0  57637-3 0  9999
2 49292  87.8973 286.8958 0002002  98.5421 261.5936 13.14503566229413
ONEWEB-0367             
1 49293U 21090Q   26182.25393201  .00000054  00000+0  10098-3 0  9992
2 49293  87.9194 271.6379 0002090 105.3988 254.7376 13.20772161231681
ONEWEB-0368             
1 49294U 21090R   26182.30359177  .00000063  00000+0  12421-3 0  9995
2 49294  87.9183 271.6368 0001316 102.8313 257.2968 13.20770998232842
ONEWEB-0369             
1 49295U 21090S   26182.28389823  .00000069  00000+0  14031-3 0  9999
2 49295  87.9178 302.1660 0001852 102.0426 258.0914 13.19725152228276
ONEWEB-0370             
1 49296U 21090T   26182.64197168  .00000039  00000+0  62924-4 0  9991
2 49296  87.9195 271.5600 0002319 100.3046 259.8349 13.20771893231772
ONEWEB-0371             
1 49297U 21090U   26182.29178132  .00000067  00000+0  13500-3 0  9999
2 49297  87.9189 302.1579 0001988 102.1235 258.0121 13.19724174228316
ONEWEB-0372             
1 49298U 21090V   26182.25293896  .00000112  00000+0  24463-3 0  9992
2 49298  87.9197 271.6394 0001985 100.5427 259.5930 13.20773168231691
ONEWEB-0373             
1 49299U 21090W   26182.27833568  .00000038  00000+0  62530-4 0  9996
2 49299  87.9193 271.6340 0002098  98.5294 261.6078 13.20772315232885
ONEWEB-0374             
1 49300U 21090X   26182.27663543  .00000188  00000+0  47194-3 0  9997
2 49300  87.8974 286.8904 0001807  82.9889 277.1446 13.14502435229415
ONEWEB-0375             
1 49301U 21090Y   26182.26655413  .00000195  00000+0  44873-3 0  9993
2 49301  87.9195 271.6286 0001997  83.5836 276.5525 13.20772140232386
ONEWEB-0376             
1 49302U 21090Z   26182.29020847  .00000077  00000+0  16035-3 0  9992
2 49302  87.9188 302.1581 0001871 105.9229 254.2110 13.19725470228316
ONEWEB-0377             
1 49303U 21090AA  26182.25321934 -.00000634  00000+0 -15905-2 0  9995
2 49303  87.9203 271.6341 0002255  98.6976 261.4413 13.20765475232371
ONEWEB-0378             
1 49304U 21090AB  26182.27342987  .00000082  00000+0  17059-3 0  9997
2 49304  87.9192 271.6333 0001946  97.2962 262.8393 13.20771319231641
ONEWEB-0379             
1 49305U 21090AC  26182.27187758  .00000014  00000+0  22934-5 0  9996
2 49305  87.8973 286.9017 0001876  97.8278 262.3064 13.14502489229419
ONEWEB-0380             
1 49306U 21090AD  26182.28705922  .00000044  00000+0  78503-4 0  9992
2 49306  87.9182 302.1630 0002045  95.5436 264.5930 13.19726151228284
ONEWEB-0381             
1 49307U 21090AE  26182.24970996  .00000081  00000+0  16787-3 0  9990
2 49307  87.9196 271.6389 0001937  93.1030 267.0325 13.20773426231687
ONEWEB-0382             
1 49308U 21090AF  26182.31200742 -.00000019  00000+0 -78077-4 0  9998
2 49308  87.9195 271.6201 0001814  93.0588 267.0753 13.20771553231685
ONEWEB-0383             
1 49309U 21090AG  26182.26553827  .00000149  00000+0  36626-3 0  9993
2 49309  87.8975 286.8948 0001806  98.3166 261.8169 13.14502326229445
ONEWEB-0384             
1 49310U 21090AH  26182.66668981  .00039984  00000+0  97838-1 0  9996
2 49310  87.9205 271.5929 0001669  90.1861 211.5661 13.20796978  5135
ONEWEB-0385             
1 49311U 21090AJ  26182.30525807  .00000037  00000+0  58949-4 0  9997
2 49311  87.9195 271.6269 0001914  94.7141 265.4211 13.20773320231660
ONEWEB-0386             
1 49312U 21090AK  26182.24634806 -.00000004  00000+0 -40556-4 0  9992
2 49312  87.9197 271.6301 0001819  95.2621 264.8720 13.20772564231671
ONEWEB-0387             
1 49313U 21090AL  26182.30694451 -.00000031  00000+0 -10744-3 0  9997
2 49313  87.9188 271.6384 0002204  90.5740 269.5646 13.20773391231681
ONEWEB-0388             
1 49314U 21090AM  26182.28231913  .00000130  00000+0  29262-3 0  9998
2 49314  87.9184 302.1622 0001835  97.0918 263.0423 13.19725552228278
ONEWEB-0389             
1 50469U 21132A   26182.47471645  .00000022  00000+0  23605-4 0  9993
2 50469  87.9131   3.0250 0001971  79.0870 281.0483 13.17649652219961
ONEWEB-0390             
1 50470U 21132B   26182.47640477  .00000018  00000+0  14282-4 0  9992
2 50470  87.9132   3.0259 0002074  92.4743 267.6626 13.17648884219961
ONEWEB-0391             
1 50471U 21132C   26182.47809170  .00000068  00000+0  14177-3 0  9997
2 50471  87.9135   3.0353 0002464  75.2523 284.8882 13.17649865219963
ONEWEB-0392             
1 50472U 21132D   26182.50847207  .00000045  00000+0  81798-4 0  9994
2 50472  87.9144   2.9984 0002023  78.6537 281.4822 13.17649977220003
ONEWEB-0393             
1 50473U 21132E   26182.48398564  .00000054  00000+0  10708-3 0  9991
2 50473  87.9133   3.0193 0001913  86.4430 273.6920 13.17650291219991
ONEWEB-0394             
1 50474U 21132F   26182.43875715  .00000083  00000+0  17790-3 0  9995
2 50474  87.9181 332.6068 0001730  91.3857 268.7473 13.18689317223470
