OBJECT_NAME,OBJECT_ID,EPOCH,MEAN_MOTION,ECCENTRICITY,INCLINATION,RA_OF_ASC_NODE,ARG_OF_PERICENTER,MEAN_ANOMALY,EPHEMERIS_TYPE,CLASSIFICATION_TYPE,NORAD_CAT_ID,ELEMENT_SET_NO,REV_AT_EPOCH,BSTAR,MEAN_MOTION_DOT,MEAN_MOTION_DDOT
ONEWEB-0365,2021-090N,2026-07-01T06:55:38.039808,13.19725522,.00019324,87.9190,302.1586,102.8494,257.2855,0,U,49291,999,22828,.22412456E-3,.103E-5,0
ONEWEB-0366,2021-090P,2026-07-01T06:56:37.761216,13.14503566,.00020025,87.8973,286.8958,98.5421,261.5936,0,U,49292,999,22941,.57637059E-3,.226E-5,0
ONEWEB-0367,2021-090Q,2026-07-01T06:05:39.725664,13.20772161,.00020906,87.9194,271.6379,105.3988,254.7376,0,U,49293,999,23168,.1009844E-3,.54E-6,0
ONEWEB-0368,2021-090R,2026-07-01T07:17:10.328928,13.20770998,.00013162,87.9183,271.6368,102.8313,257.2968,0,U,49294,999,23284,.12421483E-3,.63E-6,0
ONEWEB-0369,2021-090S,2026-07-01T06:48:48.807072,13.19725152,.00018523,87.9178,302.1660,102.0426,258.0914,0,U,49295,999,22827,.14031194E-3,.69E-6,0
ONEWEB-0370,2021-090T,2026-07-01T15:24:26.353152,13.20771893,.00023195,87.9195,271.5600,100.3046,259.8349,0,U,49296,999,23177,.62923579E-4,.39E-6,0
ONEWEB-0371,2021-090U,2026-07-01T07:00:09.906048,13.19724174,.00019889,87.9189,302.1579,102.1235,258.0121,0,U,49297,999,22831,.1349956E-3,.67E-6,0
ONEWEB-0372,2021-090V,2026-07-01T06:04:13.926144,13.20773168,.00019851,87.9197,271.6394,100.5427,259.5930,0,U,49298,999,23169,.24463019E-3,.112E-5,0
ONEWEB-0373,2021-090W,2026-07-01T06:40:48.202752,13.20772315,.00020984,87.9193,271.6340,98.5294,261.6078,0,U,49299,999,23288,.62529994E-4,.38E-6,0
ONEWEB-0374,2021-090X,2026-07-01T06:38:21.301152,13.14502435,.00018075,87.8974,286.8904,82.9889,277.1446,0,U,49300,999,22941,.47193883E-3,.188E-5,0
ONEWEB-0375,2021-090Y,2026-07-01T06:23:50.276832,13.20772140,.00019971,87.9195,271.6286,83.5836,276.5525,0,U,49301,999,23238,.4487276E-3,.195E-5,0
ONEWEB-0376,2021-090Z,2026-07-01T06:57:54.011808,13.19725470,.00018712,87.9188,302.1581,105.9229,254.2110,0,U,49302,999,22831,.16034675E-3,.77E-6,0
ONEWEB-0377,2021-090AA,2026-07-01T06:04:38.150976,13.20765475,.00022555,87.9203,271.6341,98.6976,261.4413,0,U,49303,999,23237,-.15905192E-2,-.634E-5,0
ONEWEB-0378,2021-090AB,2026-07-01T06:33:44.340768,13.20771319,.00019462,87.9192,271.6333,97.2962,262.8393,0,U,49304,999,23164,.17058789E-3,.82E-6,0
ONEWEB-0379,2021-090AC,2026-07-01T06:31:30.222912,13.14502489,.00018767,87.8973,286.9017,97.8278,262.3064,0,U,49305,999,22941,.229341E-5,.14E-6,0
ONEWEB-0380,2021-090AD,2026-07-01T06:53:21.916608,13.19726151,.0002045,87.9182,302.1630,95.5436,264.5930,0,U,49306,999,22828,.78503095E-4,.44E-6,0
ONEWEB-0381,2021-090AE,2026-07-01T05:59:34.940544,13.20773426,.00019371,87.9196,271.6389,93.1030,267.0325,0,U,49307,999,23168,.16786909E-3,.81E-6,0
ONEWEB-0382,2021-090AF,2026-07-01T07:29:17.441088,13.20771553,.00018142,87.9195,271.6201,93.0588,267.0753,0,U,49308,999,23168,-.78077268E-4,-.19E-6,0
ONEWEB-0383,2021-090AG,2026-07-01T06:22:22.506528,13.14502326,.00018064,87.8975,286.8948,98.3166,261.8169,0,U,49309,999,22944,.36625895E-3,.149E-5,0
ONEWEB-0384,2021-090AH,2026-07-01T16:00:01.999584,13.20796978,.00016697,87.9205,271.5929,90.1861,211.5661,0,U,49310,999,513,.9783813E-1,.39984E-3,0
ONEWEB-0385,2021-090AJ,2026-07-01T07:19:34.297248,13.20773320,.00019141,87.9195,271.6269,94.7141,265.4211,0,U,49311,999,23166,.58948601E-4,.37E-6,0
ONEWEB-0386,2021-090AK,2026-07-01T05:54:44.472384,13.20772564,.0001819,87.9197,271.6301,95.2621,264.8720,0,U,49312,999,23167,-.40555748E-4,-.4E-7,0
ONEWEB-0387,2021-090AL,2026-07-01T07:22:00.005664,13.20773391,.00022044,87.9188,271.6384,90.5740,269.5646,0,U,49313,999,23168,-.1074365E-3,-.31E-6,0
ONEWEB-0388,2021-090AM,2026-07-01T06:46:32.372832,13.19725552,.00018355,87.9184,302.1622,97.0918,263.0423,0,U,49314,999,22827,.29261823E-3,.13E-5,0
ONEWEB-0389,2021-132A,2026-07-01T11:23:35.501280,13.17649652,.00019718,87.9131,3.0250,79.0870,281.0483,0,U,50469,999,21996,.23605009E-4,.22E-6,0
ONEWEB-0390,2021-132B,2026-07-01T11:26:01.372128,13.17648884,.00020748,87.9132,3.0259,92.4743,267.6626,0,U,50470,999,21996,.14281532E-4,.18E-6,0
ONEWEB-0391,2021-132C,2026-07-01T11:28:27.122880,13.17649865,.00024642,87.9135,3.0353,75.2523,284.8882,0,U,50471,999,21996,.14176929E-3,.68E-6,0
ONEWEB-0392,2021-132D,2026-07-01T12:12:11.986848,13.17649977,.00020237,87.9144,2.9984,78.6537,281.4822,0,U,50472,999,22000,.81798072E-4,.45E-6,0
ONEWEB-0393,2021-132E,2026-07-01T11:36:56.359296,13.17650291,.00019132,87.9133,3.0193,86.4430,273.6920,0,U,50473,999,21999,.10707689E-3,.54E-6,0
ONEWEB-0394,2021-132F,2026-07-01T10:31:48.617760,13.18689317,.00017309,87.9181,332.6068,91.3857,268.7473,0,U,50474,999,22347,.17789696E-3,.83E-6,0
